STARLINK-1994
1 47589U 21009AT  26092.83335647  .00198538  00000+0  21437-2 0  9995
2 47589  53.0450 244.6548 0005137 207.3033 280.7761 15.62476654  5922
